{"type": "FeatureCollection", "features": [ {"type": "Feature", "properties": {"norad_id": 30481, "name": "FENGYUN 1C DEB", "group": "fengyun-1c-debris", "lat": -81.64966402335573, "lon": 97.05450122990955, "alt_km": 612.6266428645849, "timestamp": "2025-12-13T05:42:57.835967+00:00", "meta": {"OBJECT_NAME": "FENGYUN 1C DEB", "OBJECT_ID": "1999-025AGT", "EPOCH": "2025-12-12T00:20:42.208224", "MEAN_MOTION": 14.39033289, "ECCENTRICITY": 0.0223028, "INCLINATION": 98.337, "RA_OF_ASC_NODE": 3.3377, "ARG_OF_PERICENTER": 262.1675, "MEAN_ANOMALY": 150.7602, "EPHEMERIS_TYPE": 0, "CLASSIFICATION_TYPE": "U", "NORAD_CAT_ID": 30481, "ELEMENT_SET_NO": 999, "REV_AT_EPOCH": 98473, "BSTAR": 0.00085949, "MEAN_MOTION_DOT": 3.5e-05, "MEAN_MOTION_DDOT": 0}, "tle": {"line1": "1 30481U 99025AGT 25346.01437741  .00003500  00000+0  85949-3 0  9993", "line2": "2 30481  98.3370   3.3377 0223028 262.1675 150.7602 14.39033289984731"}}, "geometry": {"type": "Point", "coordinates": [97.05450122990955, -81.64966402335573]}}, {"type": "Feature", "properties": {"norad_id": 30486, "name": "FENGYUN 1C DEB", "group": "fengyun-1c-debris", "lat": -37.04660157121635, "lon": -164.97921936205003, "alt_km": 194.51675039534894, "timestamp": "2025-12-13T05:42:57.835978+00:00", "meta": {"OBJECT_NAME": "FENGYUN 1C DEB", "OBJECT_ID": "1999-025AGY", "EPOCH": "2025-12-12T00:42:33.816384", "MEAN_MOTION": 16.17395034, "ECCENTRICITY": 0.0009437, "INCLINATION": 98.7877, "RA_OF_ASC_NODE": 20.0883, "ARG_OF_PERICENTER": 216.4342, "MEAN_ANOMALY": 143.63, "EPHEMERIS_TYPE": 0, "CLASSIFICATION_TYPE": "U", "NORAD_CAT_ID": 30486, "ELEMENT_SET_NO": 999, "REV_AT_EPOCH": 1743, "BSTAR": 0.003024, "MEAN_MOTION_DOT": 0.04716526, "MEAN_MOTION_DDOT": 3.2844e-06}, "tle": {"line1": "1 30486U 99025AGY 25346.02955806  .04716526  32844-5  30240-2 0  9999", "line2": "2 30486  98.7877  20.0883 0009437 216.4342 143.6300 16.17395034 17436"}}, "geometry": {"type": "Point", "coordinates": [-164.97921936205003, -37.04660157121635]}}, {"type": "Feature", "properties": {"norad_id": 30489, "name": "FENGYUN 1C DEB", "group": "fengyun-1c-debris", "lat": 77.97594757353085, "lon": -42.278890315442155, "alt_km": 932.4224569310336, "timestamp": "2025-12-13T05:42:57.835989+00:00", "meta": {"OBJECT_NAME": "FENGYUN 1C DEB", "OBJECT_ID": "1999-025AHB", "EPOCH": "2025-12-12T07:23:04.261344", "MEAN_MOTION": 14.15819942, "ECCENTRICITY": 0.01389304, "INCLINATION": 98.4687, "RA_OF_ASC_NODE": 1.2221, "ARG_OF_PERICENTER": 266.2902, "MEAN_ANOMALY": 115.1639, "EPHEMERIS_TYPE": 0, "CLASSIFICATION_TYPE": "U", "NORAD_CAT_ID": 30489, "ELEMENT_SET_NO": 999, "REV_AT_EPOCH": 97381, "BSTAR": 0.00042234582, "MEAN_MOTION_DOT": 8.69e-06, "MEAN_MOTION_DDOT": 0}, "tle": {"line1": "1 30489U 99025AHB 25346.30768821  .00000869  00000+0  42235-3 0  9995", "line2": "2 30489  98.4687   1.2221 0138930 266.2902 115.1639 14.15819942973815"}}, "geometry": {"type": "Point", "coordinates": [-42.278890315442155, 77.97594757353085]}}, {"type": "Feature", "properties": {"norad_id": 30490, "name": "FENGYUN 1C DEB", "group": "fengyun-1c-debris", "lat": 78.13553624500561, "lon": 74.71950171923831, "alt_km": 446.25131575020623, "timestamp": "2025-12-13T05:42:57.836000+00:00", "meta": {"OBJECT_NAME": "FENGYUN 1C DEB", "OBJECT_ID": "1999-025AHC", "EPOCH": "2025-12-12T01:04:46.850016", "MEAN_MOTION": 15.28283664, "ECCENTRICITY": 0.00472883, "INCLINATION": 98.3318, "RA_OF_ASC_NODE": 117.6198, "ARG_OF_PERICENTER": 121.0552, "MEAN_ANOMALY": 239.5339, "EPHEMERIS_TYPE": 0, "CLASSIFICATION_TYPE": "U", "NORAD_CAT_ID": 30490, "ELEMENT_SET_NO": 999, "REV_AT_EPOCH": 99485, "BSTAR": 0.0048826542, "MEAN_MOTION_DOT": 0.00141357, "MEAN_MOTION_DDOT": 0}, "tle": {"line1": "1 30490U 99025AHC 25346.04498669  .00141357  00000+0  48827-2 0  9998", "line2": "2 30490  98.3318 117.6198 0047288 121.0552 239.5339 15.28283664994852"}}, "geometry": {"type": "Point", "coordinates": [74.71950171923831, 78.13553624500561]}}, {"type": "Feature", "properties": {"norad_id": 30492, "name": "FENGYUN 1C DEB", "group": "fengyun-1c-debris", "lat": -73.36301966239816, "lon": 137.6778783538853, "alt_km": 790.9864041375768, "timestamp": "2025-12-13T05:42:57.836011+00:00", "meta": {"OBJECT_NAME": "FENGYUN 1C DEB", "OBJECT_ID": "1999-025AHE", "EPOCH": "2025-12-12T07:01:49.201248", "MEAN_MOTION": 14.51833307, "ECCENTRICITY": 0.00947702, "INCLINATION": 102.3267, "RA_OF_ASC_NODE": 3.3322, "ARG_OF_PERICENTER": 64.331, "MEAN_ANOMALY": 296.7621, "EPHEMERIS_TYPE": 0, "CLASSIFICATION_TYPE": "U", "NORAD_CAT_ID": 30492, "ELEMENT_SET_NO": 999, "REV_AT_EPOCH": 96888, "BSTAR": 0.0046574118, "MEAN_MOTION_DOT": 0.00019858, "MEAN_MOTION_DDOT": 0}, "tle": {"line1": "1 30492U 99025AHE 25346.29293057  .00019858  00000+0  46574-2 0  9998", "line2": "2 30492 102.3267   3.3322 0094770  64.3310 296.7621 14.51833307968885"}}, "geometry": {"type": "Point", "coordinates": [137.6778783538853, -73.36301966239816]}}, {"type": "Feature", "properties": {"norad_id": 30493, "name": "FENGYUN 1C DEB", "group": "fengyun-1c-debris", "lat": 65.36015366850768, "lon": 16.728489557541977, "alt_km": 937.6744746191398, "timestamp": "2025-12-13T05:42:57.836022+00:00", "meta": {"OBJECT_NAME": "FENGYUN 1C DEB", "OBJECT_ID": "1999-025AHF", "EPOCH": "2025-12-12T07:36:43.233984", "MEAN_MOTION": 13.92959943, "ECCENTRICITY": 0.01813074, "INCLINATION": 98.5718, "RA_OF_ASC_NODE": 176.6773, "ARG_OF_PERICENTER": 217.9758, "MEAN_ANOMALY": 321.2235, "EPHEMERIS_TYPE": 0, "CLASSIFICATION_TYPE": "U", "NORAD_CAT_ID": 30493, "ELEMENT_SET_NO": 999, "REV_AT_EPOCH": 95089, "BSTAR": 0.0044357326, "MEAN_MOTION_DOT": 6.557e-05, "MEAN_MOTION_DDOT": 0}, "tle": {"line1": "1 30493U 99025AHF 25346.31716706  .00006557  00000+0  44357-2 0  9992", "line2": "2 30493  98.5718 176.6773 0181307 217.9758 321.2235 13.92959943950898"}}, "geometry": {"type": "Point", "coordinates": [16.728489557541977, 65.36015366850768]}}, {"type": "Feature", "properties": {"norad_id": 30494, "name": "FENGYUN 1C DEB", "group": "fengyun-1c-debris", "lat": 9.772690548101806, "lon": 20.99442971539074, "alt_km": 1084.0773249228178, "timestamp": "2025-12-13T05:42:57.836032+00:00", "meta": {"OBJECT_NAME": "FENGYUN 1C DEB", "OBJECT_ID": "1999-025AHG", "EPOCH": "2025-12-11T13:37:35.489568", "MEAN_MOTION": 13.79365167, "ECCENTRICITY": 0.01858349, "INCLINATION": 99.2831, "RA_OF_ASC_NODE": 20.9711, "ARG_OF_PERICENTER": 225.3036, "MEAN_ANOMALY": 133.2851, "EPHEMERIS_TYPE": 0, "CLASSIFICATION_TYPE": "U", "NORAD_CAT_ID": 30494, "ELEMENT_SET_NO": 999, "REV_AT_EPOCH": 94470, "BSTAR": 0.0020143048, "MEAN_MOTION_DOT": 2.311e-05, "MEAN_MOTION_DDOT": 0}, "tle": {"line1": "1 30494U 99025AHG 25345.56777187  .00002311  00000+0  20143-2 0  9990", "line2": "2 30494  99.2831  20.9711 0185834 225.3036 133.2851 13.79365167944709"}}, "geometry": {"type": "Point", "coordinates": [20.99442971539074, 9.772690548101806]}}, {"type": "Feature", "properties": {"norad_id": 30495, "name": "FENGYUN 1C DEB", "group": "fengyun-1c-debris", "lat": -26.09948377323289, "lon": -110.04164016420206, "alt_km": 1034.2847124223663, "timestamp": "2025-12-13T05:42:57.836043+00:00", "meta": {"OBJECT_NAME": "FENGYUN 1C DEB", "OBJECT_ID": "1999-025AHH", "EPOCH": "2025-12-12T04:28:20.387712", "MEAN_MOTION": 12.94382523, "ECCENTRICITY": 0.05971269, "INCLINATION": 102.2606, "RA_OF_ASC_NODE": 74.895, "ARG_OF_PERICENTER": 267.7902, "MEAN_ANOMALY": 85.4744, "EPHEMERIS_TYPE": 0, "CLASSIFICATION_TYPE": "U", "NORAD_CAT_ID": 30495, "ELEMENT_SET_NO": 999, "REV_AT_EPOCH": 88666, "BSTAR": 0.0046408031, "MEAN_MOTION_DOT": 2.851e-05, "MEAN_MOTION_DDOT": 0}, "tle": {"line1": "1 30495U 99025AHH 25346.18634708  .00002851  00000+0  46408-2 0  9992", "line2": "2 30495 102.2606  74.8950 0597126 267.7902  85.4744 12.94382523886661"}}, "geometry": {"type": "Point", "coordinates": [-110.04164016420206, -26.09948377323289]}}, {"type": "Feature", "properties": {"norad_id": 30496, "name": "FENGYUN 1C DEB", "group": "fengyun-1c-debris", "lat": 79.25543399815723, "lon": -161.4244423378036, "alt_km": 488.45280264282337, "timestamp": "2025-12-13T05:42:57.836054+00:00", "meta": {"OBJECT_NAME": "FENGYUN 1C DEB", "OBJECT_ID": "1999-025AHJ", "EPOCH": "2025-12-11T05:08:01.394592", "MEAN_MOTION": 14.94222827, "ECCENTRICITY": 0.01303502, "INCLINATION": 98.7826, "RA_OF_ASC_NODE": 250.8743, "ARG_OF_PERICENTER": 102.3216, "MEAN_ANOMALY": 259.2629, "EPHEMERIS_TYPE": 0, "CLASSIFICATION_TYPE": "U", "NORAD_CAT_ID": 30496, "ELEMENT_SET_NO": 999, "REV_AT_EPOCH": 1121, "BSTAR": 0.00083209618, "MEAN_MOTION_DOT": 0.00010491, "MEAN_MOTION_DDOT": 0}, "tle": {"line1": "1 30496U 99025AHJ 25345.21390503  .00010491  00000+0  83210-3 0  9990", "line2": "2 30496  98.7826 250.8743 0130350 102.3216 259.2629 14.94222827 11211"}}, "geometry": {"type": "Point", "coordinates": [-161.4244423378036, 79.25543399815723]}}, {"type": "Feature", "properties": {"norad_id": 30498, "name": "FENGYUN 1C DEB", "group": "fengyun-1c-debris", "lat": 44.5406505240732, "lon": 29.158167684394666, "alt_km": 893.1093784159339, "timestamp": "2025-12-13T05:42:57.836064+00:00", "meta": {"OBJECT_NAME": "FENGYUN 1C DEB", "OBJECT_ID": "1999-025AHL", "EPOCH": "2025-12-12T02:16:07.730688", "MEAN_MOTION": 14.06056902, "ECCENTRICITY": 0.01047101, "INCLINATION": 99.2377, "RA_OF_ASC_NODE": 37.2078, "ARG_OF_PERICENTER": 157.6113, "MEAN_ANOMALY": 223.1746, "EPHEMERIS_TYPE": 0, "CLASSIFICATION_TYPE": "U", "NORAD_CAT_ID": 30498, "ELEMENT_SET_NO": 999, "REV_AT_EPOCH": 95760, "BSTAR": 0.002823764, "MEAN_MOTION_DOT": 4.826e-05, "MEAN_MOTION_DDOT": 0}, "tle": {"line1": "1 30498U 99025AHL 25346.09453392  .00004826  00000+0  28238-2 0  9998", "line2": "2 30498  99.2377  37.2078 0104710 157.6113 223.1746 14.06056902957602"}}, "geometry": {"type": "Point", "coordinates": [29.158167684394666, 44.5406505240732]}}]}